STARLINK-36963          
1 68235U 26054D   26101.41869970  .00260725  00000+0  16478-2 0  9994
2 68235  53.1587 149.1421 0001455  32.4199 327.6910 15.75312121  3942
STARLINK-37127          
1 68236U 26054E   26102.82359014  .00140025  00000+0  90080-3 0  9996
2 68236  53.1594 142.2639 0000715 106.5521 253.5578 15.75283989  4167
STARLINK-37095          
1 68237U 26054F   26102.81905642  .00254173  00000+0  16079-2 0  9995
2 68237  53.1602 142.2342 0002204  59.5565 300.5673 15.75310208  4163
STARLINK-37097          
1 68238U 26054G   26102.52863375  .00194721  00000+0  12438-2 0  9997
2 68238  53.1597 143.2509 0001609  55.3052 304.8119 15.75268483  4121
STARLINK-37096          
1 68239U 26054H   26102.60115433  .00162155  00000+0  10397-2 0  9990
2 68239  53.1589 142.9972 0001165  83.5265 276.5888 15.75286536  4137
STARLINK-37092          
1 68240U 26054J   26102.00002315 -.00033530  00000+0 -21542-3 0  9991
2 68240  53.1572 146.0872 0001053  93.7316  44.0163 15.75239453  5266
STARLINK-37094          
1 68241U 26054K   26102.83335647  .00122996  00000+0  79778-3 0  9997
2 68241  53.1596 141.5694 0001065  93.1411 275.1628 15.75156393  5396
STARLINK-36356          
1 68242U 26054L   26102.80511823  .00239136  00000+0  15159-2 0  9994
2 68242  53.1570 142.1386 0003620  66.6541 293.4860 15.75304671  4161
STARLINK-36345          
1 68243U 26054M   26102.37006582  .00146776  00000+0  94615-3 0  9990
2 68243  53.1600 144.4093 0001205  60.9552 299.1588 15.75214230  4095
STARLINK-36310          
1 68244U 26054N   26101.61975796 -.00140558  00000+0 -72474-3 0  9992
2 68244  53.1569 147.5285 0002178  40.9134 319.2052 15.80732826  3980
STARLINK-36247          
1 68245U 26054P   26102.83335647  .00120334  00000+0  78081-3 0  9991
2 68245  53.1596 141.5163 0001058  94.4767 299.5808 15.75157365  5447
STARLINK-37043          
1 68246U 26054Q   26102.83335647  .00102407  00000+0  66627-3 0  9996
2 68246  53.1598 141.6220 0001089  90.4759 252.0722 15.75165746  5403
STARLINK-37044          
1 68247U 26054R   26102.59661630  .00123212  00000+0  79522-3 0  9999
2 68247  53.1600 142.9654 0001223  52.3210 307.7922 15.75269538  4135
STARLINK-36997          
1 68248U 26054S   26102.80965397  .00244198  00000+0  15463-2 0  9991
2 68248  53.1584 142.1700 0002859  71.3444 288.7886 15.75317041  4160
STARLINK-37141          
1 68249U 26054T   26102.41535995  .00152972  00000+0  98451-3 0  9993
2 68249  53.1584 143.9711 0002496  30.4436 329.6729 15.75228332  4105
STARLINK-37087          
1 68250U 26054U   26102.66668980  .00017617  00000+0  11901-3 0  9994
2 68250  53.1576 142.7761 0001038  90.4679 228.1661 15.75209056  5376
