[{"OBJECT_NAME":"STARLINK-36963","OBJECT_ID":"2026-054D","EPOCH":"2026-04-11T10:02:55.654080","MEAN_MOTION":15.75312121,"ECCENTRICITY":0.00014555,"INCLINATION":53.1587,"RA_OF_ASC_NODE":149.1421,"ARG_OF_PERICENTER":32.4199,"MEAN_ANOMALY":327.691,"EPHEMERIS_TYPE":0,"CLASSIFICATION_TYPE":"U","NORAD_CAT_ID":68235,"ELEMENT_SET_NO":999,"REV_AT_EPOCH":394,"BSTAR":0.0016478389,"MEAN_MOTION_DOT":0.00260725,"MEAN_MOTION_DDOT":0},{"OBJECT_NAME":"STARLINK-37127","OBJECT_ID":"2026-054E","EPOCH":"2026-04-12T19:45:58.188096","MEAN_MOTION":15.75283989,"ECCENTRICITY":7.15e-5,"INCLINATION":53.1594,"RA_OF_ASC_NODE":142.2639,"ARG_OF_PERICENTER":106.5521,"MEAN_ANOMALY":253.5578,"EPHEMERIS_TYPE":0,"CLASSIFICATION_TYPE":"U","NORAD_CAT_ID":68236,"ELEMENT_SET_NO":999,"REV_AT_EPOCH":416,"BSTAR":0.0009008,"MEAN_MOTION_DOT":0.00140025,"MEAN_MOTION_DDOT":0},{"OBJECT_NAME":"STARLINK-37095","OBJECT_ID":"2026-054F","EPOCH":"2026-04-12T19:39:26.474688","MEAN_MOTION":15.75310208,"ECCENTRICITY":0.0002204,"INCLINATION":53.1602,"RA_OF_ASC_NODE":142.2342,"ARG_OF_PERICENTER":59.5565,"MEAN_ANOMALY":300.5673,"EPHEMERIS_TYPE":0,"CLASSIFICATION_TYPE":"U","NORAD_CAT_ID":68237,"ELEMENT_SET_NO":999,"REV_AT_EPOCH":416,"BSTAR":0.0016079,"MEAN_MOTION_DOT":0.00254173,"MEAN_MOTION_DDOT":0},{"OBJECT_NAME":"STARLINK-37097","OBJECT_ID":"2026-054G","EPOCH":"2026-04-12T12:41:13.956000","MEAN_MOTION":15.75268483,"ECCENTRICITY":0.0001609,"INCLINATION":53.1597,"RA_OF_ASC_NODE":143.2509,"ARG_OF_PERICENTER":55.3052,"MEAN_ANOMALY":304.8119,"EPHEMERIS_TYPE":0,"CLASSIFICATION_TYPE":"U","NORAD_CAT_ID":68238,"ELEMENT_SET_NO":999,"REV_AT_EPOCH":412,"BSTAR":0.0012438,"MEAN_MOTION_DOT":0.00194721,"MEAN_MOTION_DDOT":0},{"OBJECT_NAME":"STARLINK-37096","OBJECT_ID":"2026-054H","EPOCH":"2026-04-12T14:25:39.734112","MEAN_MOTION":15.75286536,"ECCENTRICITY":0.0001165,"INCLINATION":53.1589,"RA_OF_ASC_NODE":142.9972,"ARG_OF_PERICENTER":83.5265,"MEAN_ANOMALY":276.5888,"EPHEMERIS_TYPE":0,"CLASSIFICATION_TYPE":"U","NORAD_CAT_ID":68239,"ELEMENT_SET_NO":999,"REV_AT_EPOCH":413,"BSTAR":0.0010397,"MEAN_MOTION_DOT":0.00162155,"MEAN_MOTION_DDOT":0},{"OBJECT_NAME":"STARLINK-37092","OBJECT_ID":"2026-054J","EPOCH":"2026-04-12T00:00:02.000160","MEAN_MOTION":15.75239453,"ECCENTRICITY":0.00010532,"INCLINATION":53.1572,"RA_OF_ASC_NODE":146.0872,"ARG_OF_PERICENTER":93.7316,"MEAN_ANOMALY":44.0163,"EPHEMERIS_TYPE":0,"CLASSIFICATION_TYPE":"U","NORAD_CAT_ID":68240,"ELEMENT_SET_NO":999,"REV_AT_EPOCH":526,"BSTAR":-0.00021542332,"MEAN_MOTION_DOT":-0.0003353,"MEAN_MOTION_DDOT":0},{"OBJECT_NAME":"STARLINK-37094","OBJECT_ID":"2026-054K","EPOCH":"2026-04-12T20:00:01.999008","MEAN_MOTION":15.75156393,"ECCENTRICITY":0.0001065,"INCLINATION":53.1596,"RA_OF_ASC_NODE":141.5694,"ARG_OF_PERICENTER":93.1411,"MEAN_ANOMALY":275.1628,"EPHEMERIS_TYPE":0,"CLASSIFICATION_TYPE":"U","NORAD_CAT_ID":68241,"ELEMENT_SET_NO":999,"REV_AT_EPOCH":539,"BSTAR":0.00079778,"MEAN_MOTION_DOT":0.00122996,"MEAN_MOTION_DDOT":0},{"OBJECT_NAME":"STARLINK-36356","OBJECT_ID":"2026-054L","EPOCH":"2026-04-12T19:19:22.215072","MEAN_MOTION":15.75304671,"ECCENTRICITY":0.000362,"INCLINATION":53.157,"RA_OF_ASC_NODE":142.1386,"ARG_OF_PERICENTER":66.6541,"MEAN_ANOMALY":293.486,"EPHEMERIS_TYPE":0,"CLASSIFICATION_TYPE":"U","NORAD_CAT_ID":68242,"ELEMENT_SET_NO":999,"REV_AT_EPOCH":416,"BSTAR":0.0015159,"MEAN_MOTION_DOT":0.00239136,"MEAN_MOTION_DDOT":0},{"OBJECT_NAME":"STARLINK-36345","OBJECT_ID":"2026-054M","EPOCH":"2026-04-12T08:52:53.686848","MEAN_MOTION":15.7521423,"ECCENTRICITY":0.0001205,"INCLINATION":53.16,"RA_OF_ASC_NODE":144.4093,"ARG_OF_PERICENTER":60.9552,"MEAN_ANOMALY":299.1588,"EPHEMERIS_TYPE":0,"CLASSIFICATION_TYPE":"U","NORAD_CAT_ID":68243,"ELEMENT_SET_NO":999,"REV_AT_EPOCH":409,"BSTAR":0.00094615,"MEAN_MOTION_DOT":0.00146776,"MEAN_MOTION_DDOT":0},{"OBJECT_NAME":"STARLINK-36310","OBJECT_ID":"2026-054N","EPOCH":"2026-04-11T14:52:27.087744","MEAN_MOTION":15.80732826,"ECCENTRICITY":0.00021785,"INCLINATION":53.1569,"RA_OF_ASC_NODE":147.5285,"ARG_OF_PERICENTER":40.9134,"MEAN_ANOMALY":319.2052,"EPHEMERIS_TYPE":0,"CLASSIFICATION_TYPE":"U","NORAD_CAT_ID":68244,"ELEMENT_SET_NO":999,"REV_AT_EPOCH":398,"BSTAR":-0.00072474429,"MEAN_MOTION_DOT":-0.00140558,"MEAN_MOTION_DDOT":0},{"OBJECT_NAME":"STARLINK-36247","OBJECT_ID":"2026-054P","EPOCH":"2026-04-12T20:00:01.999008","MEAN_MOTION":15.75157365,"ECCENTRICITY":0.0001058,"INCLINATION":53.1596,"RA_OF_ASC_NODE":141.5163,"ARG_OF_PERICENTER":94.4767,"MEAN_ANOMALY":299.5808,"EPHEMERIS_TYPE":0,"CLASSIFICATION_TYPE":"U","NORAD_CAT_ID":68245,"ELEMENT_SET_NO":999,"REV_AT_EPOCH":544,"BSTAR":0.00078081,"MEAN_MOTION_DOT":0.00120334,"MEAN_MOTION_DDOT":0},{"OBJECT_NAME":"STARLINK-37043","OBJECT_ID":"2026-054Q","EPOCH":"2026-04-12T20:00:01.999008","MEAN_MOTION":15.75165746,"ECCENTRICITY":0.0001089,"INCLINATION":53.1598,"RA_OF_ASC_NODE":141.622,"ARG_OF_PERICENTER":90.4759,"MEAN_ANOMALY":252.0722,"EPHEMERIS_TYPE":0,"CLASSIFICATION_TYPE":"U","NORAD_CAT_ID":68246,"ELEMENT_SET_NO":999,"REV_AT_EPOCH":540,"BSTAR":0.00066627,"MEAN_MOTION_DOT":0.00102407,"MEAN_MOTION_DDOT":0},{"OBJECT_NAME":"STARLINK-37044","OBJECT_ID":"2026-054R","EPOCH":"2026-04-12T14:19:07.648320","MEAN_MOTION":15.75269538,"ECCENTRICITY":0.0001223,"INCLINATION":53.16,"RA_OF_ASC_NODE":142.9654,"ARG_OF_PERICENTER":52.321,"MEAN_ANOMALY":307.7922,"EPHEMERIS_TYPE":0,"CLASSIFICATION_TYPE":"U","NORAD_CAT_ID":68247,"ELEMENT_SET_NO":999,"REV_AT_EPOCH":413,"BSTAR":0.00079522,"MEAN_MOTION_DOT":0.00123212,"MEAN_MOTION_DDOT":0},{"OBJECT_NAME":"STARLINK-36997","OBJECT_ID":"2026-054S","EPOCH":"2026-04-12T19:25:54.103008","MEAN_MOTION":15.75317041,"ECCENTRICITY":0.0002859,"INCLINATION":53.1584,"RA_OF_ASC_NODE":142.17,"ARG_OF_PERICENTER":71.3444,"MEAN_ANOMALY":288.7886,"EPHEMERIS_TYPE":0,"CLASSIFICATION_TYPE":"U","NORAD_CAT_ID":68248,"ELEMENT_SET_NO":999,"REV_AT_EPOCH":416,"BSTAR":0.0015463,"MEAN_MOTION_DOT":0.00244198,"MEAN_MOTION_DDOT":0},{"OBJECT_NAME":"STARLINK-37141","OBJECT_ID":"2026-054T","EPOCH":"2026-04-12T09:58:07.099680","MEAN_MOTION":15.75228332,"ECCENTRICITY":0.0002496,"INCLINATION":53.1584,"RA_OF_ASC_NODE":143.9711,"ARG_OF_PERICENTER":30.4436,"MEAN_ANOMALY":329.6729,"EPHEMERIS_TYPE":0,"CLASSIFICATION_TYPE":"U","NORAD_CAT_ID":68249,"ELEMENT_SET_NO":999,"REV_AT_EPOCH":410,"BSTAR":0.00098451,"MEAN_MOTION_DOT":0.00152972,"MEAN_MOTION_DDOT":0},{"OBJECT_NAME":"STARLINK-37087","OBJECT_ID":"2026-054U","EPOCH":"2026-04-12T16:00:01.998720","MEAN_MOTION":15.75209056,"ECCENTRICITY":0.0001038,"INCLINATION":53.1576,"RA_OF_ASC_NODE":142.7761,"ARG_OF_PERICENTER":90.4679,"MEAN_ANOMALY":228.1661,"EPHEMERIS_TYPE":0,"CLASSIFICATION_TYPE":"U","NORAD_CAT_ID":68250,"ELEMENT_SET_NO":999,"REV_AT_EPOCH":537,"BSTAR":0.00011901,"MEAN_MOTION_DOT":0.00017617,"MEAN_MOTION_DDOT":0}]
